GLOBALSTAR M023         
1 25621U 99004A   24343.26398519  .00000040  00000+0  79822-3 0  9991
2 25621  52.0111 274.8042 0010632  65.2653  98.8718 12.62486855191700
GLOBALSTAR M040         
1 25622U 99004B   24342.89997435 -.00000036  00000+0  38085-3 0  9994
2 25622  51.9923 279.7803 0001169  10.6797  30.9616 12.61992860191102
GLOBALSTAR M036         
1 25623U 99004C   24342.84924597 -.00000028  00000+0  79433-3 0  9992
2 25623  51.9992  24.6414 0010942  48.0113 122.9034 11.86582758156261
GLOBALSTAR M038         
1 25624U 99004D   24342.95852833 -.00000057  00000+0  31072-3 0  9997
2 25624  51.9975 262.2846 0002546  27.7890  62.4216 12.32515429178794
GLOBALSTAR M022         
1 25649U 99012A   24342.75072514 -.00000043  00000+0  52254-3 0  9991
2 25649  52.0040  91.3090 0003143 142.4419  24.1531 12.02492873153347
GLOBALSTAR M041         
1 25650U 99012B   24342.94067893 -.00000051  00000+0  43992-3 0  9996
2 25650  52.0037 326.4165 0002148 310.4388  49.6261 11.96662427155380
GLOBALSTAR M046         
1 25651U 99012C   24342.95883979 -.00000048  00000+0  45278-3 0  9994
2 25651  52.0079  47.8592 0002196 215.8644 315.9721 12.09404024160525
GLOBALSTAR M037         
1 25652U 99012D   24342.91849568 -.00000069  00000+0  19588-3 0  9995
2 25652  52.0024  46.5422 0002483 125.4743  45.5069 12.62428210187116
